CCSDS_OMM_VERS = 2.0
CREATION_DATE  = 
ORIGINATOR     = 

OBJECT_NAME    = STARLINK-35877
OBJECT_ID      = 2025-294V
CENTER_NAME    = EARTH
REF_FRAME      = TEME
TIME_SYSTEM    = UTC
MEAN_ELEMENT_THEORY = SGP/SGP4

EPOCH          = 2025-12-25T04:00:01.998720
MEAN_MOTION    = 15.71259650
ECCENTRICITY   = .0001254
INCLINATION    = 43.0001
RA_OF_ASC_NODE = 106.1079
ARG_OF_PERICENTER = 266.9181
MEAN_ANOMALY   = 297.2494

EPHEMERIS_TYPE = 0
CLASSIFICATION_TYPE = U
NORAD_CAT_ID   = 67049
ELEMENT_SET_NO = 999
REV_AT_EPOCH   = 230
BSTAR          = -.16816E-1
MEAN_MOTION_DOT = -.194449E-1
MEAN_MOTION_DDOT = 0

CCSDS_OMM_VERS = 2.0
CREATION_DATE  = 
ORIGINATOR     = 

OBJECT_NAME    = STARLINK-36078
OBJECT_ID      = 2025-294W
CENTER_NAME    = EARTH
REF_FRAME      = TEME
TIME_SYSTEM    = UTC
MEAN_ELEMENT_THEORY = SGP/SGP4

EPOCH          = 2025-12-25T04:00:01.998720
MEAN_MOTION    = 15.71239158
ECCENTRICITY   = .0001274
INCLINATION    = 43.0000
RA_OF_ASC_NODE = 106.1016
ARG_OF_PERICENTER = 269.8471
MEAN_ANOMALY   = 296.5711

EPHEMERIS_TYPE = 0
CLASSIFICATION_TYPE = U
NORAD_CAT_ID   = 67050
ELEMENT_SET_NO = 999
REV_AT_EPOCH   = 222
BSTAR          = -.16809E-1
MEAN_MOTION_DOT = -.1942206E-1
MEAN_MOTION_DDOT = 0

CCSDS_OMM_VERS = 2.0
CREATION_DATE  = 
ORIGINATOR     = 

OBJECT_NAME    = STARLINK-35706
OBJECT_ID      = 2025-294X
CENTER_NAME    = EARTH
REF_FRAME      = TEME
TIME_SYSTEM    = UTC
MEAN_ELEMENT_THEORY = SGP/SGP4

EPOCH          = 2025-12-25T04:00:01.998720
MEAN_MOTION    = 15.71222340
ECCENTRICITY   = .0001241
INCLINATION    = 43.0002
RA_OF_ASC_NODE = 106.0963
ARG_OF_PERICENTER = 266.4325
MEAN_ANOMALY   = 302.2232

EPHEMERIS_TYPE = 0
CLASSIFICATION_TYPE = U
NORAD_CAT_ID   = 67051
ELEMENT_SET_NO = 999
REV_AT_EPOCH   = 230
BSTAR          = -.16847E-1
MEAN_MOTION_DOT = -.1944844E-1
MEAN_MOTION_DDOT = 0

CCSDS_OMM_VERS = 2.0
CREATION_DATE  = 
ORIGINATOR     = 

OBJECT_NAME    = STARLINK-35720
OBJECT_ID      = 2025-294Y
CENTER_NAME    = EARTH
REF_FRAME      = TEME
TIME_SYSTEM    = UTC
MEAN_ELEMENT_THEORY = SGP/SGP4

EPOCH          = 2025-12-25T04:00:01.998720
MEAN_MOTION    = 15.71219992
ECCENTRICITY   = .0001266
INCLINATION    = 43.0003
RA_OF_ASC_NODE = 106.0914
ARG_OF_PERICENTER = 269.4880
MEAN_ANOMALY   = 301.1396

EPHEMERIS_TYPE = 0
CLASSIFICATION_TYPE = U
NORAD_CAT_ID   = 67052
ELEMENT_SET_NO = 999
REV_AT_EPOCH   = 229
BSTAR          = -.16853E-1
MEAN_MOTION_DOT = -.194537E-1
MEAN_MOTION_DDOT = 0

CCSDS_OMM_VERS = 2.0
CREATION_DATE  = 
ORIGINATOR     = 

OBJECT_NAME    = STARLINK-35739
OBJECT_ID      = 2025-294Z
CENTER_NAME    = EARTH
REF_FRAME      = TEME
TIME_SYSTEM    = UTC
MEAN_ELEMENT_THEORY = SGP/SGP4

EPOCH          = 2025-12-25T04:00:01.998720
MEAN_MOTION    = 15.71207155
ECCENTRICITY   = .0001271
INCLINATION    = 43.0007
RA_OF_ASC_NODE = 106.0857
ARG_OF_PERICENTER = 266.8890
MEAN_ANOMALY   = 305.8738

EPHEMERIS_TYPE = 0
CLASSIFICATION_TYPE = U
NORAD_CAT_ID   = 67053
ELEMENT_SET_NO = 999
REV_AT_EPOCH   = 194
BSTAR          = -.16858E-1
MEAN_MOTION_DOT = -.1944921E-1
MEAN_MOTION_DDOT = 0

CCSDS_OMM_VERS = 2.0
CREATION_DATE  = 
ORIGINATOR     = 

OBJECT_NAME    = STARLINK-35754
OBJECT_ID      = 2025-294AA
CENTER_NAME    = EARTH
REF_FRAME      = TEME
TIME_SYSTEM    = UTC
MEAN_ELEMENT_THEORY = SGP/SGP4

EPOCH          = 2025-12-25T04:00:01.998720
MEAN_MOTION    = 15.71187191
ECCENTRICITY   = .0001364
INCLINATION    = 43.0005
RA_OF_ASC_NODE = 106.0802
ARG_OF_PERICENTER = 269.1972
MEAN_ANOMALY   = 305.8321

EPHEMERIS_TYPE = 0
CLASSIFICATION_TYPE = U
NORAD_CAT_ID   = 67054
ELEMENT_SET_NO = 999
REV_AT_EPOCH   = 211
BSTAR          = -.16866E-1
MEAN_MOTION_DOT = -.1944361E-1
MEAN_MOTION_DDOT = 0

CCSDS_OMM_VERS = 2.0
CREATION_DATE  = 
ORIGINATOR     = 

OBJECT_NAME    = STARLINK-35790
OBJECT_ID      = 2025-294AB
CENTER_NAME    = EARTH
REF_FRAME      = TEME
TIME_SYSTEM    = UTC
MEAN_ELEMENT_THEORY = SGP/SGP4

EPOCH          = 2025-12-25T04:00:01.998720
MEAN_MOTION    = 15.71172502
ECCENTRICITY   = .0001341
INCLINATION    = 43.0001
RA_OF_ASC_NODE = 106.0741
ARG_OF_PERICENTER = 267.6473
MEAN_ANOMALY   = 309.5889

EPHEMERIS_TYPE = 0
CLASSIFICATION_TYPE = U
NORAD_CAT_ID   = 67055
ELEMENT_SET_NO = 999
REV_AT_EPOCH   = 230
BSTAR          = -.16898E-1
MEAN_MOTION_DOT = -.1946491E-1
MEAN_MOTION_DDOT = 0

CCSDS_OMM_VERS = 2.0
CREATION_DATE  = 
ORIGINATOR     = 

OBJECT_NAME    = STARLINK-36143
OBJECT_ID      = 2025-294AC
CENTER_NAME    = EARTH
REF_FRAME      = TEME
TIME_SYSTEM    = UTC
MEAN_ELEMENT_THEORY = SGP/SGP4

EPOCH          = 2025-12-25T04:00:01.998720
MEAN_MOTION    = 15.71154016
ECCENTRICITY   = .0001342
INCLINATION    = 42.9997
RA_OF_ASC_NODE = 106.0585
ARG_OF_PERICENTER = 267.6560
MEAN_ANOMALY   = 315.6292

EPHEMERIS_TYPE = 0
CLASSIFICATION_TYPE = U
NORAD_CAT_ID   = 67056
ELEMENT_SET_NO = 999
REV_AT_EPOCH   = 230
BSTAR          = -.16895E-1
MEAN_MOTION_DOT = -.1944796E-1
MEAN_MOTION_DDOT = 0

CCSDS_OMM_VERS = 2.0
CREATION_DATE  = 
ORIGINATOR     = 

OBJECT_NAME    = STARLINK-36141
OBJECT_ID      = 2025-294AD
CENTER_NAME    = EARTH
REF_FRAME      = TEME
TIME_SYSTEM    = UTC
MEAN_ELEMENT_THEORY = SGP/SGP4

EPOCH          = 2025-12-25T04:00:01.998720
MEAN_MOTION    = 15.71161161
ECCENTRICITY   = .0001316
INCLINATION    = 42.9998
RA_OF_ASC_NODE = 106.0642
ARG_OF_PERICENTER = 271.1920
MEAN_ANOMALY   = 310.0270

EPHEMERIS_TYPE = 0
CLASSIFICATION_TYPE = U
NORAD_CAT_ID   = 67057
ELEMENT_SET_NO = 999
REV_AT_EPOCH   = 222
BSTAR          = -.16898E-1
MEAN_MOTION_DOT = -.1945637E-1
MEAN_MOTION_DDOT = 0

CCSDS_OMM_VERS = 2.0
CREATION_DATE  = 
ORIGINATOR     = 

OBJECT_NAME    = STARLINK-35767
OBJECT_ID      = 2025-294AE
CENTER_NAME    = EARTH
REF_FRAME      = TEME
TIME_SYSTEM    = UTC
MEAN_ELEMENT_THEORY = SGP/SGP4

EPOCH          = 2025-12-25T04:00:01.998720
MEAN_MOTION    = 15.71165653
ECCENTRICITY   = .0001296
INCLINATION    = 43.0001
RA_OF_ASC_NODE = 106.0692
ARG_OF_PERICENTER = 265.7638
MEAN_ANOMALY   = 313.4927

EPHEMERIS_TYPE = 0
CLASSIFICATION_TYPE = U
NORAD_CAT_ID   = 67058
ELEMENT_SET_NO = 999
REV_AT_EPOCH   = 211
BSTAR          = -.16885E-1
MEAN_MOTION_DOT = -.1944691E-1
MEAN_MOTION_DDOT = 0

CCSDS_OMM_VERS = 2.0
CREATION_DATE  = 
ORIGINATOR     = 

OBJECT_NAME    = HULIANWANG DIGUI-119
OBJECT_ID      = 2025-295A
CENTER_NAME    = EARTH
REF_FRAME      = TEME
TIME_SYSTEM    = UTC
MEAN_ELEMENT_THEORY = SGP/SGP4

EPOCH          = 2025-12-25T02:45:12.132864
MEAN_MOTION    = 14.24616725
ECCENTRICITY   = .0014021
INCLINATION    = 50.0050
RA_OF_ASC_NODE = 320.0392
ARG_OF_PERICENTER = 290.0442
MEAN_ANOMALY   = 69.8962

EPHEMERIS_TYPE = 0
CLASSIFICATION_TYPE = U
NORAD_CAT_ID   = 67059
ELEMENT_SET_NO = 999
REV_AT_EPOCH   = 188
BSTAR          = .75937E-4
MEAN_MOTION_DOT = .18E-6
MEAN_MOTION_DDOT = 0

CCSDS_OMM_VERS = 2.0
CREATION_DATE  = 
ORIGINATOR     = 

OBJECT_NAME    = HULIANWANG DIGUI-120
OBJECT_ID      = 2025-295B
CENTER_NAME    = EARTH
REF_FRAME      = TEME
TIME_SYSTEM    = UTC
MEAN_ELEMENT_THEORY = SGP/SGP4

EPOCH          = 2025-12-23T18:39:46.505376
MEAN_MOTION    = 14.25711377
ECCENTRICITY   = .0013178
INCLINATION    = 50.0058
RA_OF_ASC_NODE = 325.6343
ARG_OF_PERICENTER = 286.4479
MEAN_ANOMALY   = 73.4987

EPHEMERIS_TYPE = 0
CLASSIFICATION_TYPE = U
NORAD_CAT_ID   = 67060
ELEMENT_SET_NO = 999
REV_AT_EPOCH   = 169
BSTAR          = .67209387E-4
MEAN_MOTION_DOT = .1E-7
MEAN_MOTION_DDOT = 0

