STARLINK-35877          
1 67049U 25294V   25359.16668980 -.01944490  00000+0 -16816-1 0  9991
2 67049  43.0001 106.1079 0001254 266.9181 297.2494 15.71259650  2308
STARLINK-36078          
1 67050U 25294W   25359.16668980 -.01942206  00000+0 -16809-1 0  9998
2 67050  43.0000 106.1016 0001274 269.8471 296.5711 15.71239158  2222
STARLINK-35706          
1 67051U 25294X   25359.16668980 -.01944844  00000+0 -16847-1 0  9991
2 67051  43.0002 106.0963 0001241 266.4325 302.2232 15.71222340  2307
STARLINK-35720          
1 67052U 25294Y   25359.16668980 -.01945370  00000+0 -16853-1 0  9994
2 67052  43.0003 106.0914 0001266 269.4880 301.1396 15.71219992  2297
STARLINK-35739          
1 67053U 25294Z   25359.16668980 -.01944921  00000+0 -16858-1 0  9991
2 67053  43.0007 106.0857 0001271 266.8890 305.8738 15.71207155  1946
STARLINK-35754          
1 67054U 25294AA  25359.16668980 -.01944361  00000+0 -16866-1 0  9999
2 67054  43.0005 106.0802 0001364 269.1972 305.8321 15.71187191  2110
STARLINK-35790          
1 67055U 25294AB  25359.16668980 -.01946491  00000+0 -16898-1 0  9991
2 67055  43.0001 106.0741 0001341 267.6473 309.5889 15.71172502  2304
STARLINK-36143          
1 67056U 25294AC  25359.16668980 -.01944796  00000+0 -16895-1 0  9995
2 67056  42.9997 106.0585 0001342 267.6560 315.6292 15.71154016  2307
STARLINK-36141          
1 67057U 25294AD  25359.16668980 -.01945637  00000+0 -16898-1 0  9994
2 67057  42.9998 106.0642 0001316 271.1920 310.0270 15.71161161  2229
STARLINK-35767          
1 67058U 25294AE  25359.16668980 -.01944691  00000+0 -16885-1 0  9990
2 67058  43.0001 106.0692 0001296 265.7638 313.4927 15.71165653  2118
HULIANWANG DIGUI-119    
1 67059U 25295A   25359.11472376  .00000018  00000+0  75937-4 0  9998
2 67059  50.0050 320.0392 0014021 290.0442  69.8962 14.24616725  1882
HULIANWANG DIGUI-120    
1 67060U 25295B   25357.77762159  .00000001  00000+0  67209-4 0  9996
2 67060  50.0058 325.6343 0013178 286.4479  73.4987 14.25711377  1697
